#aV2011 10 31  0  0   .00000000      96 DD+AD WGS84 FIT  NGA
## 1660  86400.00000000   900.00000000 55865  .0000000000000
+   31     1  2  3  4  5  6  7  8  9 10 11 12 13 14 15 16 17
+         18 19 20 21 22 23 25 26 27 28 29 30 31 32  0  0  0
+          0  0  0  0  0  0  0  0  0  0  0  0  0  0  0  0  0
+          0  0  0  0  0  0  0  0  0  0  0  0  0  0  0  0  0
+          0  0  0  0  0  0  0  0  0  0  0  0  0  0  0  0  0
++         0  0  0  0  0  0  0  0  0  0  0  0  0  0  0  0  0
++         0  0  0  0  0  0  0  0  0  0  0  0  0  0  0  0  0
++         0  0  0  0  0  0  0  0  0  0  0  0  0  0  0  0  0
++         0  0  0  0  0  0  0  0  0  0  0  0  0  0  0  0  0
++         0  0  0  0  0  0  0  0  0  0  0  0  0  0  0  0  0
%c cc cc ccc ccc cccc cccc cccc cccc ccccc ccccc ccccc ccccc
%c cc cc ccc ccc cccc cccc cccc cccc ccccc ccccc ccccc ccccc
%f  0.0000000  0.000000000  0.00000000000  0.000000000000000
%f  0.0000000  0.000000000  0.00000000000  0.000000000000000
%i    0    0    0    0      0      0      0      0         0
%i    0    0    0    0      0      0      0      0         0
/*      NGA, ST. LOUIS,MO.                                  
/*   EPHEMERIS COMPUTED FROM  3 DAYS OF DATA                
/* CCCCCCCCCCCCCCCCCCCCCCCCCCCCCCCCCCCCCCCCCCCCCCCCCCCCCCCCC
/* CCCCCCCCCCCCCCCCCCCCCCCCCCCCCCCCCCCCCCCCCCCCCCCCCCCCCCCCC
*  2011 10 31 10  0   .00000000                                                 
P  1  -8706.126186 -13763.568209 -20996.327273     64.966847                    
V  1  26356.782646  -3866.420629  -8395.943285       .245318                    
P  2 -15349.832228  14007.132987  16328.539038    363.362378                    
V  2 -21015.172544     99.980209 -20429.730367       .018037                    
P  3  10363.475643 -23789.616740   4426.259647    788.637303                    
V  3   2129.730022   7126.567330  30542.366803       .051273                    
P  4 -25468.773382   6377.754435   4843.126407    276.717203                    
V  4  -6710.589010  -2474.425452 -30221.335140       .112567                    
P  5  -3889.482787  17794.850506  19274.836488   -238.979223                    
V  5 -15759.115296 -18905.941563  14383.151740      -.050527                    
P  6  14324.495298 -20612.328873   8414.220426    -39.750945                    
V  6   -461.428419  11160.677626  28836.639614       .064319                    
P  7 -22101.751319  -6857.743057  13268.903080     34.708004                    
V  7  16454.098768  -3335.002379  25477.417908       .021002                    
P  8 -26568.828453  -1854.230529   3661.923707       .027686                    
V  8   4473.696317  -1228.396116  31722.353874      -.000470                    
P  9   4242.055923  14476.714042 -22408.155639    115.295323                    
V  9 -26832.226090   3548.665939  -2882.582879       .024875                    
P 10 -17448.883655     30.301674  19900.767832    -17.740442                    
V 10 -13917.912918 -21645.004681 -11648.226500      -.010503                    
P 11  -2703.607478 -16939.113058 -20604.370792   -199.676929                    
V 11  24291.976080  -8588.954230   4287.433368      -.034240                    
P 12  11002.606532  23353.193977  -6610.793425     31.836510                    
V 12  -6487.373382  -5644.445814 -30531.838788       .023068                    
P 13  -9516.168447 -12131.042193  21480.219610    243.887890                    
V 13  13636.653539 -23923.257964  -7502.249371      -.019543                    
P 14  17615.451487  -7959.859874 -17972.004729    179.190926                    
V 14  -9357.524592  21257.769957 -18546.151216       .016090                    
P 15  -2455.901002  24430.835687  -9877.938433   -100.791964                    
V 15  -7634.551503  10516.790766  28064.880081       .011928                    
P 16   3966.433526 -17514.217032  19478.491813   -206.344869                    
V 16  14891.576887  19813.885209  15079.297988      -.020625                    
P 17 -17594.306426   7184.544380 -18306.174314    168.064353                    
V 17   8684.460425 -22043.078141 -17097.398786      -.018710                    
P 18  19665.375165  15038.582852  -9757.738434    164.789479                    
V 18   4917.460362  12231.959873  27431.626287       .018447                    
P 19   6714.358666 -24190.209823  -8113.412601   -199.949683                    
V 19   7563.774116  -7681.496362  29631.070987      -.039837                    
P 20 -12427.550966 -22755.768214  -6071.987774     55.275471                    
V 20   7434.981151   3711.314773 -29781.395739       .006394                    
P 21  24531.055740   5049.635154  10129.223409   -181.432515                    
V 21 -11753.816100   3950.249675  27110.269853      -.024771                    
P 22  18335.043729   1294.965527 -19030.832061    143.678844                    
V 22  12893.756497  21041.065536  13615.956983      -.002521                    
P 23  -3840.868347 -19994.702074  16884.865612    263.369995                    
V 23  10681.678812 -18796.810093 -20212.829350      -.032225                    
P 25  17688.816280  19526.735332   3445.919658     25.844786                    
V 25    573.105434   5078.366308 -31456.781494       .015546                    
P 26 -12285.095457  23301.939007   -365.126742   -209.510561                    
V 26  -1963.674669  -1352.271077  32554.134363      -.132819                    
P 27  -2663.817449  14758.444005 -21229.596234    320.748455                    
V 27 -28272.373545   3657.033615   6289.624941       .039282                    
P 28 -18430.349090  -6012.497507 -17739.554098     80.164033                    
V 28 -11912.070939 -20265.509800  18446.888900       .032751                    
P 29  10158.529275  12685.498534  21078.467581    253.211263                    
V 29 -12303.932561  23601.139123  -8260.163753       .033289                    
P 30  18479.525511    820.192732  18704.627647     58.854565                    
V 30  15296.867527  19231.293771 -15648.992769      -.075323                    
P 31  23765.765650  -8336.078169   8981.185189    162.934840                    
V 31  11151.554027    723.361043 -29291.566063       .051731                    
P 32  -4339.924025 -23425.943695 -11937.287572   -354.216110                    
V 32   9960.918284  11975.604932 -26112.382082      -.060356                    
EOF
